SHIYAN-1 (SY-1)         
1 28220U 04012A   26068.73650539  .00016393  00000+0  54854-3 0  9991
2 28220  97.8764 140.5238 0005873  23.6952 336.4557 15.31043463195862
STARLINK-34877          
1 65630U 25210J   26068.88731514  .00032895  00000+0  11172-2 0  9999
2 65630  53.1580 306.0005 0000664 109.9610 250.1462 15.30218042 27768
